{"type": "FeatureCollection", "features": [ {"type": "Feature", "properties": {"norad_id": 54234, "name": "NOAA 21 (JPSS-2)", "group": "weather", "lat": -10.077969017439887, "lon": 115.3730980193861, "alt_km": 832.2124123768835, "timestamp": "2025-12-26T19:22:38.537096+00:00", "meta": {"OBJECT_NAME": "NOAA 21 (JPSS-2)", "OBJECT_ID": "2022-150A", "EPOCH": "2025-12-26T13:24:35.195616", "MEAN_MOTION": 14.19527935, "ECCENTRICITY": 0.00015759, "INCLINATION": 98.7479, "RA_OF_ASC_NODE": 296.6957, "ARG_OF_PERICENTER": 9.0885, "MEAN_ANOMALY": 351.0319, "EPHEMERIS_TYPE": 0, "CLASSIFICATION_TYPE": "U", "NORAD_CAT_ID": 54234, "ELEMENT_SET_NO": 999, "REV_AT_EPOCH": 16205, "BSTAR": 7.3003511e-05, "MEAN_MOTION_DOT": 1.1e-06, "MEAN_MOTION_DDOT": 0}, "tle": {"line1": "1 54234U 22150A   25360.55874069  .00000110  00000+0  73004-4 0  9997", "line2": "2 54234  98.7479 296.6957 0001575   9.0885 351.0319 14.19527935162058"}}, "geometry": {"type": "Point", "coordinates": [115.3730980193861, -10.077969017439887]}}, {"type": "Feature", "properties": {"norad_id": 54743, "name": "METEOSAT-12 (MTG-I1)", "group": "weather", "lat": 0.005175116687661074, "lon": 25.891688816607612, "alt_km": 35789.703453901646, "timestamp": "2025-12-26T19:22:38.537108+00:00", "meta": {"OBJECT_NAME": "METEOSAT-12 (MTG-I1)", "OBJECT_ID": "2022-170C", "EPOCH": "2025-12-26T08:51:38.739168", "MEAN_MOTION": 1.00270911, "ECCENTRICITY": 0.00017146, "INCLINATION": 0.7011, "RA_OF_ASC_NODE": 25.8801, "ARG_OF_PERICENTER": 242.0428, "MEAN_ANOMALY": 319.779, "EPHEMERIS_TYPE": 0, "CLASSIFICATION_TYPE": "U", "NORAD_CAT_ID": 54743, "ELEMENT_SET_NO": 999, "REV_AT_EPOCH": 1124, "BSTAR": 0, "MEAN_MOTION_DOT": 1.4e-07, "MEAN_MOTION_DDOT": 0}, "tle": {"line1": "1 54743U 22170C   25360.36919837  .00000014  00000+0  00000+0 0  9990", "line2": "2 54743   0.7011  25.8801 0001714 242.0428 319.7790  1.00270911 11248"}}, "geometry": {"type": "Point", "coordinates": [25.891688816607612, 0.005175116687661074]}}, {"type": "Feature", "properties": {"norad_id": 55973, "name": "TIANMU-1 03", "group": "weather", "lat": 35.70607941574817, "lon": -10.702452595556831, "alt_km": 441.2229674838709, "timestamp": "2025-12-26T19:22:38.537128+00:00", "meta": {"OBJECT_NAME": "TIANMU-1 03", "OBJECT_ID": "2023-039A", "EPOCH": "2025-12-26T15:38:21.723648", "MEAN_MOTION": 15.41335374, "ECCENTRICITY": 0.00036847, "INCLINATION": 97.5114, "RA_OF_ASC_NODE": 163.6955, "ARG_OF_PERICENTER": 20.0398, "MEAN_ANOMALY": 340.0992, "EPHEMERIS_TYPE": 0, "CLASSIFICATION_TYPE": "U", "NORAD_CAT_ID": 55973, "ELEMENT_SET_NO": 999, "REV_AT_EPOCH": 15420, "BSTAR": 0.00040350703, "MEAN_MOTION_DOT": 0.00016755, "MEAN_MOTION_DDOT": 0}, "tle": {"line1": "1 55973U 23039A   25360.65164032  .00016755  00000+0  40351-3 0  9998", "line2": "2 55973  97.5114 163.6955 0003684  20.0398 340.0992 15.41335374154201"}}, "geometry": {"type": "Point", "coordinates": [-10.702452595556831, 35.70607941574817]}}, {"type": "Feature", "properties": {"norad_id": 55974, "name": "TIANMU-1 04", "group": "weather", "lat": -81.02197409612252, "lon": -140.40548065396905, "alt_km": 448.89551159003986, "timestamp": "2025-12-26T19:22:38.537141+00:00", "meta": {"OBJECT_NAME": "TIANMU-1 04", "OBJECT_ID": "2023-039B", "EPOCH": "2025-12-26T15:04:21.088704", "MEAN_MOTION": 15.41678585, "ECCENTRICITY": 0.00042862, "INCLINATION": 97.5046, "RA_OF_ASC_NODE": 162.8568, "ARG_OF_PERICENTER": 13.3864, "MEAN_ANOMALY": 346.7495, "EPHEMERIS_TYPE": 0, "CLASSIFICATION_TYPE": "U", "NORAD_CAT_ID": 55974, "ELEMENT_SET_NO": 999, "REV_AT_EPOCH": 15420, "BSTAR": 0.00040054045, "MEAN_MOTION_DOT": 0.00016823, "MEAN_MOTION_DDOT": 0}, "tle": {"line1": "1 55974U 23039B   25360.62802186  .00016823  00000+0  40054-3 0  9991", "line2": "2 55974  97.5046 162.8568 0004286  13.3864 346.7495 15.41678585154204"}}, "geometry": {"type": "Point", "coordinates": [-140.40548065396905, -81.02197409612252]}}, {"type": "Feature", "properties": {"norad_id": 55975, "name": "TIANMU-1 05", "group": "weather", "lat": -71.07323897781097, "lon": -173.84123444455173, "alt_km": 450.57354879337254, "timestamp": "2025-12-26T19:22:38.537221+00:00", "meta": {"OBJECT_NAME": "TIANMU-1 05", "OBJECT_ID": "2023-039C", "EPOCH": "2025-12-26T15:01:02.550144", "MEAN_MOTION": 15.41290558, "ECCENTRICITY": 0.00038653, "INCLINATION": 97.5093, "RA_OF_ASC_NODE": 163.3472, "ARG_OF_PERICENTER": 39.9736, "MEAN_ANOMALY": 320.1794, "EPHEMERIS_TYPE": 0, "CLASSIFICATION_TYPE": "U", "NORAD_CAT_ID": 55975, "ELEMENT_SET_NO": 999, "REV_AT_EPOCH": 15418, "BSTAR": 0.0003960868, "MEAN_MOTION_DOT": 0.0001642, "MEAN_MOTION_DDOT": 0}, "tle": {"line1": "1 55975U 23039C   25360.62572396  .00016420  00000+0  39609-3 0  9996", "line2": "2 55975  97.5093 163.3472 0003865  39.9736 320.1794 15.41290558154186"}}, "geometry": {"type": "Point", "coordinates": [-173.84123444455173, -71.07323897781097]}}, {"type": "Feature", "properties": {"norad_id": 55976, "name": "TIANMU-1 06", "group": "weather", "lat": -81.25979597262749, "lon": -75.09820774930614, "alt_km": 450.05883463568716, "timestamp": "2025-12-26T19:22:38.537238+00:00", "meta": {"OBJECT_NAME": "TIANMU-1 06", "OBJECT_ID": "2023-039D", "EPOCH": "2025-12-26T15:06:48.919104", "MEAN_MOTION": 15.41729586, "ECCENTRICITY": 0.00041161, "INCLINATION": 97.5104, "RA_OF_ASC_NODE": 163.8279, "ARG_OF_PERICENTER": 33.6372, "MEAN_ANOMALY": 326.5135, "EPHEMERIS_TYPE": 0, "CLASSIFICATION_TYPE": "U", "NORAD_CAT_ID": 55976, "ELEMENT_SET_NO": 999, "REV_AT_EPOCH": 15420, "BSTAR": 0.00039853481, "MEAN_MOTION_DOT": 0.00016767, "MEAN_MOTION_DDOT": 0}, "tle": {"line1": "1 55976U 23039D   25360.62973286  .00016767  00000+0  39853-3 0  9995", "line2": "2 55976  97.5104 163.8279 0004116  33.6372 326.5135 15.41729586154207"}}, "geometry": {"type": "Point", "coordinates": [-75.09820774930614, -81.25979597262749]}}, {"type": "Feature", "properties": {"norad_id": 56232, "name": "FENGYUN 3G", "group": "weather", "lat": -9.345838541093995, "lon": 146.9167205712397, "alt_km": 410.4574313287867, "timestamp": "2025-12-26T19:22:38.537254+00:00", "meta": {"OBJECT_NAME": "FENGYUN 3G", "OBJECT_ID": "2023-055A", "EPOCH": "2025-12-26T14:47:40.969824", "MEAN_MOTION": 15.52145415, "ECCENTRICITY": 0.00039295, "INCLINATION": 49.9929, "RA_OF_ASC_NODE": 155.8459, "ARG_OF_PERICENTER": 295.5477, "MEAN_ANOMALY": 64.5083, "EPHEMERIS_TYPE": 0, "CLASSIFICATION_TYPE": "U", "NORAD_CAT_ID": 56232, "ELEMENT_SET_NO": 999, "REV_AT_EPOCH": 15318, "BSTAR": 0.00049421747, "MEAN_MOTION_DOT": 0.00030151, "MEAN_MOTION_DDOT": 0}, "tle": {"line1": "1 56232U 23055A   25360.61644641  .00030151  00000+0  49422-3 0  9994", "line2": "2 56232  49.9929 155.8459 0003929 295.5477  64.5083 15.52145415153188"}}, "geometry": {"type": "Point", "coordinates": [146.9167205712397, -9.345838541093995]}}, {"type": "Feature", "properties": {"norad_id": 57166, "name": "METEOR-M2 3", "group": "weather", "lat": -35.47440423361919, "lon": 60.317125464069626, "alt_km": 815.7098540193447, "timestamp": "2025-12-26T19:22:38.537265+00:00", "meta": {"OBJECT_NAME": "METEOR-M2 3", "OBJECT_ID": "2023-091A", "EPOCH": "2025-12-26T14:29:12.387840", "MEAN_MOTION": 14.24027725, "ECCENTRICITY": 0.00031832, "INCLINATION": 98.636, "RA_OF_ASC_NODE": 53.8996, "ARG_OF_PERICENTER": 325.0291, "MEAN_ANOMALY": 35.0679, "EPHEMERIS_TYPE": 0, "CLASSIFICATION_TYPE": "U", "NORAD_CAT_ID": 57166, "ELEMENT_SET_NO": 999, "REV_AT_EPOCH": 12995, "BSTAR": 2.2270077e-05, "MEAN_MOTION_DOT": 8e-08, "MEAN_MOTION_DDOT": 0}, "tle": {"line1": "1 57166U 23091A   25360.60361560  .00000008  00000+0  22270-4 0  9997", "line2": "2 57166  98.6360  53.8996 0003183 325.0291  35.0679 14.24027725129956"}}, "geometry": {"type": "Point", "coordinates": [60.317125464069626, -35.47440423361919]}}, {"type": "Feature", "properties": {"norad_id": 57399, "name": "TIANMU-1 07", "group": "weather", "lat": 16.023057387508945, "lon": 48.24109453407765, "alt_km": 478.8179840662078, "timestamp": "2025-12-26T19:22:38.537277+00:00", "meta": {"OBJECT_NAME": "TIANMU-1 07", "OBJECT_ID": "2023-101A", "EPOCH": "2025-12-26T14:35:33.677952", "MEAN_MOTION": 15.28269001, "ECCENTRICITY": 0.00049034, "INCLINATION": 97.2856, "RA_OF_ASC_NODE": 50.1517, "ARG_OF_PERICENTER": 45.5264, "MEAN_ANOMALY": 314.6376, "EPHEMERIS_TYPE": 0, "CLASSIFICATION_TYPE": "U", "NORAD_CAT_ID": 57399, "ELEMENT_SET_NO": 999, "REV_AT_EPOCH": 13527, "BSTAR": 0.00027722231, "MEAN_MOTION_DOT": 7.565e-05, "MEAN_MOTION_DDOT": 0}, "tle": {"line1": "1 57399U 23101A   25360.60802868  .00007565  00000+0  27722-3 0  9999", "line2": "2 57399  97.2856  50.1517 0004903  45.5264 314.6376 15.28269001135275"}}, "geometry": {"type": "Point", "coordinates": [48.24109453407765, 16.023057387508945]}}, {"type": "Feature", "properties": {"norad_id": 57400, "name": "TIANMU-1 08", "group": "weather", "lat": -17.16402207612483, "lon": -132.1220146204458, "alt_km": 490.27790308180465, "timestamp": "2025-12-26T19:22:38.537287+00:00", "meta": {"OBJECT_NAME": "TIANMU-1 08", "OBJECT_ID": "2023-101B", "EPOCH": "2025-12-26T13:48:11.722752", "MEAN_MOTION": 15.28249667, "ECCENTRICITY": 0.00068461, "INCLINATION": 97.2846, "RA_OF_ASC_NODE": 49.9152, "ARG_OF_PERICENTER": 44.3282, "MEAN_ANOMALY": 315.8505, "EPHEMERIS_TYPE": 0, "CLASSIFICATION_TYPE": "U", "NORAD_CAT_ID": 57400, "ELEMENT_SET_NO": 999, "REV_AT_EPOCH": 13526, "BSTAR": 0.00027123306, "MEAN_MOTION_DOT": 7.398e-05, "MEAN_MOTION_DDOT": 0}, "tle": {"line1": "1 57400U 23101B   25360.57513568  .00007398  00000+0  27123-3 0  9993", "line2": "2 57400  97.2846  49.9152 0006846  44.3282 315.8505 15.28249667135265"}}, "geometry": {"type": "Point", "coordinates": [-132.1220146204458, -17.16402207612483]}}]}